     3.00           N                   E                   RINEX VERSION / TYPE
BRD_USR             ESA                 20190112 171704  UTCPGM / RUN BY / DATE
 GAL   3.6000E+01  1.1719E-01  1.0681E-03  0.0000E+00       IONOSPHERIC CORR
GAUT  2.7939677238E-09-1.776356839E-15 518400 2035 GSTB   0 TIME SYSTEM CORR
GPGA  8.7311491370E-11-3.108624469E-15      0 2036 GSTB   0 TIME SYSTEM CORR
                                                            END OF HEADER
E04 2019 01 12 15 20 00-1.985726994462E-04-7.830180948076E-12 0.000000000000E+00
     6.000000000000E+01-3.075000000000E+01 3.263350217350E-09-1.735962874942E+00
    -1.424923539162E-06 7.323222234845E-05 1.084618270397E-05 5.440620321274E+03
     5.736000000000E+05-7.450580596924E-09 1.241438143979E+00 1.862645149231E-09
     9.524920007836E-01 1.063437500000E+02 2.131962762109E+00-5.525587305748E-09
     1.357199389945E-10 2.580000000000E+02 2.035000000000E+03 0.000000000000E+00
     3.120000000000E+00 0.000000000000E+00-7.916241884232E-09 0.000000000000E+00
     5.743000000000E+05 0.000000000000E+00 0.000000000000E+00 0.000000000000E+00
E05 2019 01 12 15 20 00 1.262864097953E-04-6.536993168993E-12 0.000000000000E+00
     6.000000000000E+01-6.875000000000E+00 3.350139546759E-09-2.810663251406E+00
    -3.390014171600E-07 1.351987011731E-04 1.095607876778E-05 5.440618953705E+03
     5.736000000000E+05 1.862645149231E-09 1.241371363231E+00 2.235174179077E-08
     9.524614067778E-01 1.034687500000E+02 1.633436972143E+00-5.570589180256E-09
     1.507205638307E-10 2.580000000000E+02 2.035000000000E+03 0.000000000000E+00
     3.120000000000E+00 0.000000000000E+00-1.396983861923E-09 0.000000000000E+00
     5.743000000000E+05 0.000000000000E+00 0.000000000000E+00 0.000000000000E+00
E07 2019 01 12 15 20 00-1.112525351346E-04-7.091216502886E-12 0.000000000000E+00
     6.000000000000E+01-3.387500000000E+01 3.328352924973E-09 2.758093708622E+00
    -1.508742570877E-06 1.379578607157E-04 1.236237585545E-05 5.440620344162E+03
     5.736000000000E+05 0.000000000000E+00 1.241389260571E+00-3.725290298462E-09
     9.524923460323E-01 6.975000000000E+01-1.004066362823E-02-5.541302246052E-09
     9.678974596714E-11 2.580000000000E+02 2.035000000000E+03 0.000000000000E+00
     3.120000000000E+00 0.000000000000E+00 0.000000000000E+00 0.000000000000E+00
     5.743000000000E+05 0.000000000000E+00 0.000000000000E+00 0.000000000000E+00
E08 2019 01 12 15 20 00 6.424826220609E-03-7.517542144342E-12 0.000000000000E+00
     6.000000000000E+01-1.696875000000E+01 3.133701959836E-09 3.076613077261E+00
    -8.735805749893E-07 2.140431897715E-04 1.215562224388E-05 5.440623685837E+03
     5.736000000000E+05-7.450580596924E-09 1.232777655783E+00-2.235174179077E-08
     9.584354843764E-01 7.800000000000E+01 4.580466316636E-01-5.500943422088E-09
     9.428964182777E-11 2.580000000000E+02 2.035000000000E+03 0.000000000000E+00
     3.120000000000E+00 0.000000000000E+00-8.614733815193E-09 0.000000000000E+00
     5.743000000000E+05 0.000000000000E+00 0.000000000000E+00 0.000000000000E+00
E09 2019 01 12 15 20 00 6.560373585671E-03-1.132605120802E-11 0.000000000000E+00
     6.000000000000E+01-1.971875000000E+01 3.161203105370E-09-4.826784928795E-01
    -8.735805749893E-07 2.400436205789E-04 1.047737896442E-05 5.440625400543E+03
     5.736000000000E+05-1.862645149231E-09 1.232774298386E+00 0.000000000000E+00
     9.584653015727E-01 1.178125000000E+02 8.907801372539E-02-5.498443317949E-09
     1.550064566411E-10 2.580000000000E+02 2.035000000000E+03 0.000000000000E+00
     3.120000000000E+00 0.000000000000E+00-3.492459654808E-09 0.000000000000E+00
     5.743000000000E+05 0.000000000000E+00 0.000000000000E+00 0.000000000000E+00
E18 2019 01 12 15 20 00 5.611630040221E-03-2.847855284926E-11 0.000000000000E+00
     6.000000000000E+01 1.018125000000E+02 4.028382083998E-09-1.166463334943E+00
     7.027760148048E-06 1.663041092688E-01 7.085502147675E-06 5.289370977402E+03
     5.736000000000E+05 7.003545761108E-07-1.448620546392E+00 5.766749382019E-06
     8.818398689016E-01 2.250937500000E+02 1.441694033052E+00-6.721351399836E-09
    -8.257486814613E-10 2.580000000000E+02 2.035000000000E+03 0.000000000000E+00
     3.120000000000E+00 5.600000000000E+01 1.420266926289E-08 0.000000000000E+00
     5.743000000000E+05 0.000000000000E+00 0.000000000000E+00 0.000000000000E+00
E19 2019 01 12 15 20 00-9.174691513181E-06 2.842170943040E-13 0.000000000000E+00
     6.000000000000E+01-3.934375000000E+01 3.175489414737E-09-1.121536637966E+00
    -1.756474375725E-06 1.332756364718E-04 1.095235347748E-05 5.440619615555E+03
     5.736000000000E+05-7.450580596924E-09 1.238129587970E+00-1.303851604462E-08
     9.582213555942E-01 1.041562500000E+02 2.378130794647E+00-5.482371219910E-09
     1.057186893220E-10 2.580000000000E+02 2.035000000000E+03 0.000000000000E+00
     3.120000000000E+00 0.000000000000E+00-8.614733815193E-09 0.000000000000E+00
     5.743000000000E+05 0.000000000000E+00 0.000000000000E+00 0.000000000000E+00
E21 2019 01 12 15 20 00-5.140799912624E-04-1.946887095983E-12 0.000000000000E+00
     6.000000000000E+01 2.812500000000E-01 2.910478375964E-09-3.996942688021E-01
    -1.192092895508E-07 4.813645500690E-05 6.137415766716E-06 5.440621644974E+03
     5.736000000000E+05 7.450580596924E-09-2.951831965570E+00 9.313225746155E-09
     9.897002029974E-01 2.200312500000E+02 2.887713127814E-01-5.567374760649E-09
    -4.282321233011E-10 2.580000000000E+02 2.035000000000E+03 0.000000000000E+00
     3.120000000000E+00 0.000000000000E+00-2.328306436539E-09 0.000000000000E+00
     5.743000000000E+05 0.000000000000E+00 0.000000000000E+00 0.000000000000E+00
E24 2019 01 12 15 20 00 6.289673561696E-03-1.969624463527E-11 0.000000000000E+00
     6.000000000000E+01 1.312500000000E+00 2.863690712784E-09-2.985672821486E+00
     7.078051567078E-08 4.799548769370E-04 6.679445505142E-06 5.440616689682E+03
     5.736000000000E+05 1.490116119385E-08-2.945763365908E+00-3.911554813385E-08
     9.877045910951E-01 2.098125000000E+02 4.979224635321E-01-5.548445400736E-09
    -3.953736117551E-10 2.580000000000E+02 2.035000000000E+03 0.000000000000E+00
     3.120000000000E+00 0.000000000000E+00 4.260800778866E-08 0.000000000000E+00
     5.743000000000E+05 0.000000000000E+00 0.000000000000E+00 0.000000000000E+00
E25 2019 01 12 15 20 00 1.925966120325E-03-1.129762949859E-11 0.000000000000E+00
     6.000000000000E+01-2.843750000000E+00 2.830832201238E-09-1.918765286745E+00
    -2.440065145493E-07 1.895447494462E-04 6.677582859993E-06 5.440625751495E+03
     5.736000000000E+05-2.235174179077E-08-2.951840724060E+00-1.862645149231E-09
     9.897056801627E-01 2.098750000000E+02-1.332160963314E+00-5.502372053025E-09
    -4.557332688342E-10 2.580000000000E+02 2.035000000000E+03 0.000000000000E+00
     3.120000000000E+00 0.000000000000E+00-1.396983861923E-09 0.000000000000E+00
     5.743000000000E+05 0.000000000000E+00 0.000000000000E+00 0.000000000000E+00
E27 2019 01 12 15 20 00 5.511603667401E-04-7.744915819785E-12 0.000000000000E+00
     6.000000000000E+01 2.406250000000E+00 2.908692587293E-09 1.500588088146E+00
     1.303851604462E-07 1.858427422121E-04 6.286427378654E-06 5.440621541977E+03
     5.736000000000E+05 1.862645149231E-08-2.951816411825E+00 4.097819328308E-08
     9.896728771506E-01 2.165625000000E+02-8.246414719131E-01-5.533801933634E-09
    -4.168030758068E-10 2.580000000000E+02 2.035000000000E+03 0.000000000000E+00
     3.120000000000E+00 0.000000000000E+00-2.561137080193E-09 0.000000000000E+00
     5.743000000000E+05 0.000000000000E+00 0.000000000000E+00 0.000000000000E+00
E24 2019 01 12 15 20 00 6.289679207839E-03-1.966782292584E-11 0.000000000000E+00
     6.000000000000E+01 1.312500000000E+00 2.863690712784E-09-2.985672821486E+00
     7.078051567078E-08 4.799548769370E-04 6.679445505142E-06 5.440616689682E+03
     5.736000000000E+05 1.490116119385E-08-2.945763365908E+00-3.911554813385E-08
     9.877045910951E-01 2.098125000000E+02 4.979224635321E-01-5.548445400736E-09
    -3.953736117551E-10 5.210000000000E+02 2.035000000000E+03 0.000000000000E+00
     3.120000000000E+00 0.000000000000E+00 4.260800778866E-08 4.773028194904E-08
     5.743450000000E+05 0.000000000000E+00 0.000000000000E+00 0.000000000000E+00
E36 2019 01 12 15 20 00 7.604971760884E-04-4.490630090004E-12 0.000000000000E+00
     6.000000000000E+01 2.603125000000E+01 2.876905548949E-09 2.453479538711E+00
     1.203268766403E-06 3.347344463691E-04 3.878027200699E-06 5.440597974777E+03
     5.736000000000E+05 1.862645149231E-09-8.692332162410E-01 3.911554813385E-08
     9.851750623700E-01 2.691562500000E+02-1.531230711094E+00-5.672021976768E-09
     2.667968274445E-10 2.580000000000E+02 2.035000000000E+03 0.000000000000E+00
     3.120000000000E+00 5.600000000000E+01 1.164153218269E-09 0.000000000000E+00
     5.743500000000E+05 0.000000000000E+00 0.000000000000E+00 0.000000000000E+00
E36 2019 01 12 15 20 00 7.604977581650E-04-4.476419235289E-12 0.000000000000E+00
     6.000000000000E+01 2.603125000000E+01 2.876905548949E-09 2.453479538711E+00
     1.203268766403E-06 3.347344463691E-04 3.878027200699E-06 5.440597974777E+03
     5.736000000000E+05 1.862645149231E-09-8.692332162410E-01 3.911554813385E-08
     9.851750623700E-01 2.691562500000E+02-1.531230711094E+00-5.672021976768E-09
     2.667968274445E-10 5.210000000000E+02 2.035000000000E+03 0.000000000000E+00
     3.120000000000E+00 4.550000000000E+02 1.164153218269E-09 1.164153218269E-09
     5.743750000000E+05 0.000000000000E+00 0.000000000000E+00 0.000000000000E+00
